ONEWEB-0504             
1 54122U 22138K   25270.80215455  .00000002  00000+0 -28233-4 0  9990
2 54122  87.9289 357.1432 0001499  96.2807 263.8497 13.19725590142221
ONEWEB-0505             
1 54123U 22138L   25270.79900894  .00000006  00000+0 -16311-4 0  9995
2 54123  87.9287 357.1319 0001232 103.1586 256.9685 13.19724918142204
ONEWEB-0506             
1 54124U 22138M   25271.15280421  .00000039  00000+0  64264-4 0  9999
2 54124  87.9290 357.0594 0001603 100.1693 259.9621 13.19726402142248
ONEWEB-0507             
1 54125U 22138N   25271.17334004  .00000144  00000+0  32746-3 0  9995
2 54125  87.9273 357.1029 0001651 104.9155 255.2160 13.19726991142297
ONEWEB-0508             
1 54126U 22138P   25271.24599180  .00000143  00000+0  32417-3 0  9996
2 54126  87.9282 357.0748 0001493 110.4027 249.7267 13.19727157142289
ONEWEB-0509             
1 54127U 22138Q   25270.76583860  .00000003  00000+0 -25832-4 0  9991
2 54127  87.9291 357.1345 0001657 100.4357 259.6963 13.19725895142191
ONEWEB-0510             
1 54128U 22138R   25271.24027426 -.00000039  00000+0 -12819-3 0  9997
2 54128  87.9243 326.6710 0002378  93.3859 266.7546 13.20772229144704
ONEWEB-0511             
1 54129U 22138S   25271.21756273  .00000046  00000+0  82042-4 0  9996
2 54129  87.9291 357.0494 0001702  90.6753 269.4575 13.19726742142288
